2026-052J               
1 68206U 26052J   26083.94748301  .00052689  21814-5  77301-3 0  9994
2 68206  97.3416 159.6627 0545556 344.6567  13.8643 14.67554761  1298
STARLINK-36986          
1 68207U 26053A   26082.75003472 -.02178594  13471-2 -52740-2 0  9991
2 68207  97.2798 317.5963 0001366  75.8606 330.9523 15.96510579  2273
STARLINK-37009          
1 68208U 26053B   26082.75003472 -.02165852  13342-2 -52025-2 0  9998
2 68208  97.2790 317.5965 0001369  82.1939 326.2739 15.96653310  2279
STARLINK-36948          
1 68209U 26053C   26082.75003472 -.02155942  13247-2 -51376-2 0  9990
2 68209  97.2790 317.5975 0001325  77.4855 332.8540 15.96799505  2165
STARLINK-37119          
1 68210U 26053D   26082.75003472 -.02153772  13245-2 -50902-2 0  9993
2 68210  97.2790 317.5983 0001347  78.0615 334.2663 15.96951025  2272
STARLINK-37120          
1 68211U 26053E   26082.75003472 -.02153150  13261-2 -50466-2 0  9997
2 68211  97.2786 317.5992 0001349  73.4169 341.0884 15.97103573  2250
STARLINK-37117          
1 68212U 26053F   26082.75003472 -.02117499  12864-2 -49245-2 0  9995
2 68212  97.2790 317.6005 0001368  81.8358 334.8069 15.97243516  2275
STARLINK-37116          
1 68213U 26053G   26082.75003472 -.02113601  12840-2 -48764-2 0  9996
2 68213  97.2785 317.6008 0001461  74.3274 344.1131 15.97388703  2273
STARLINK-35854          
1 68214U 26053H   26082.75003472 -.02145400  13237-2 -49070-2 0  9991
2 68214  97.2784 317.6018 0001463  76.1563 344.4394 15.97549801  2033
STARLINK-36272          
1 68215U 26053J   26082.75003472 -.02095967  12678-2 -47595-2 0  9992
2 68215  97.2783 317.6025 0001319  74.6837 347.7178 15.97677496  2160
STARLINK-37014          
1 68216U 26053K   26082.75003472 -.02143391  13259-2 -48234-2 0  9995
2 68216  97.2782 317.6033 0001399  77.5243 347.0672 15.97845911  2273
STARLINK-37011          
1 68217U 26053L   26082.75003472 -.02142179  13267-2 -47831-2 0  9990
2 68217  97.2783 317.6044 0001477  79.6243 346.7601 15.97987718  2277
STARLINK-37108          
1 68218U 26053M   26082.75003472 -.02083363  12594-2 -46213-2 0  9995
2 68218  97.2782 317.6049 0001441  91.6419 336.1732 15.98101819  2271
STARLINK-37106          
1 68219U 26053N   26082.75003472 -.02076994  12541-2 -45725-2 0  9997
2 68219  97.2782 317.6056 0001433  76.9815 352.6288 15.98238011  2271
STARLINK-37030          
1 68220U 26053P   26082.75003472 -.02122435  13119-2 -45946-2 0  9998
2 68220  97.2777 317.6071 0001429  83.0242 350.5991 15.98545768  2270
STARLINK-37012          
1 68221U 26053Q   26082.75003472 -.02116487  13026-2 -46198-2 0  9996
2 68221  97.2778 317.6063 0001448  76.8136 354.7645 15.98396022  2275
